{
  "type": "FeatureCollection",
  "features": [
    {
      "type": "Feature",
      "properties": {
        "norad_id": 40069,
        "name": "METEOR-M 2",
        "group": "weather",
        "lat": 44.8610550169947,
        "lon": 150.46873685275412,
        "alt_km": 816.4336875204235,
        "timestamp": "2025-12-10T05:46:13.440283+00:00",
        "meta_object_name": "METEOR-M 2",
        "meta_object_id": "2014-037A",
        "meta_epoch": "2025-12-09T20:41:32.644896",
        "meta_mean_motion": 14.21384039,
        "meta_eccentricity": 0.0004873,
        "meta_inclination": 98.4901,
        "meta_ra_of_asc_node": 321.5565,
        "meta_arg_of_pericenter": 219.5249,
        "meta_mean_anomaly": 140.5574,
        "meta_ephemeris_type": 0,
        "meta_classification_type": "U",
        "meta_norad_cat_id": 40069,
        "meta_element_set_no": 999,
        "meta_rev_at_epoch": 59242,
        "meta_bstar": 9.893e-05,
        "meta_mean_motion_dot": 1.74e-06,
        "meta_mean_motion_ddot": 0,
        "tle_line1": "1 40069U 14037A   25343.86218339  .00000174  00000+0  98930-4 0  9995",
        "tle_line2": "2 40069  98.4901 321.5565 0004873 219.5249 140.5574 14.21384039592426"
      },
      "geometry": {
        "type": "Point",
        "coordinates": [
          150.46873685275412,
          44.8610550169947
        ]
      }
    },
    {
      "type": "Feature",
      "properties": {
        "norad_id": 40267,
        "name": "HIMAWARI-8",
        "group": "weather",
        "lat": 0.010976279649879336,
        "lon": -53.56621435235671,
        "alt_km": 35781.23624230923,
        "timestamp": "2025-12-10T05:46:13.440294+00:00",
        "meta_object_name": "HIMAWARI-8",
        "meta_object_id": "2014-060A",
        "meta_epoch": "2025-12-09T14:54:38.529792",
        "meta_mean_motion": 1.00270615,
        "meta_eccentricity": 0.0001257,
        "meta_inclination": 0.0337,
        "meta_ra_of_asc_node": 213.2243,
        "meta_arg_of_pericenter": 84.448,
        "meta_mean_anomaly": 145.2594,
        "meta_ephemeris_type": 0,
        "meta_classification_type": "U",
        "meta_norad_cat_id": 40267,
        "meta_element_set_no": 999,
        "meta_rev_at_epoch": 4085,
        "meta_bstar": 0,
        "meta_mean_motion_dot": -2.73e-06,
        "meta_mean_motion_ddot": 0,
        "tle_line1": "1 40267U 14060A   25343.62127928 -.00000273  00000+0  00000+0 0  9995",
        "tle_line2": "2 40267   0.0337 213.2243 0001257  84.4480 145.2594  1.00270615 40853"
      },
      "geometry": {
        "type": "Point",
        "coordinates": [
          -53.56621435235671,
          0.010976279649879336
        ]
      }
    },
    {
      "type": "Feature",
      "properties": {
        "norad_id": 40367,
        "name": "FENGYUN 2G",
        "group": "weather",
        "lat": -0.9363281227557056,
        "lon": -94.67098902205919,
        "alt_km": 35775.13895090836,
        "timestamp": "2025-12-10T05:46:13.440307+00:00",
        "meta_object_name": "FENGYUN 2G",
        "meta_object_id": "2014-090A",
        "meta_epoch": "2025-12-09T19:11:01.159872",
        "meta_mean_motion": 1.00264939,
        "meta_eccentricity": 0.0003084,
        "meta_inclination": 5.1606,
        "meta_ra_of_asc_node": 75.1277,
        "meta_arg_of_pericenter": 192.3246,
        "meta_mean_anomaly": 198.6902,
        "meta_ephemeris_type": 0,
        "meta_classification_type": "U",
        "meta_norad_cat_id": 40367,
        "meta_element_set_no": 999,
        "meta_rev_at_epoch": 4010,
        "meta_bstar": 0,
        "meta_mean_motion_dot": -2.99e-06,
        "meta_mean_motion_ddot": 0,
        "tle_line1": "1 40367U 14090A   25343.79931898 -.00000299  00000+0  00000+0 0  9994",
        "tle_line2": "2 40367   5.1606  75.1277 0003084 192.3246 198.6902  1.00264939 40105"
      },
      "geometry": {
        "type": "Point",
        "coordinates": [
          -94.67098902205919,
          -0.9363281227557056
        ]
      }
    },
    {
      "type": "Feature",
      "properties": {
        "norad_id": 40732,
        "name": "METEOSAT-11 (MSG-4)",
        "group": "weather",
        "lat": 2.6552874770491077,
        "lon": 175.1184790574391,
        "alt_km": 35783.30439540835,
        "timestamp": "2025-12-10T05:46:13.440319+00:00",
        "meta_object_name": "METEOSAT-11 (MSG-4)",
        "meta_object_id": "2015-034A",
        "meta_epoch": "2025-12-09T05:03:28.023264",
        "meta_mean_motion": 1.00266394,
        "meta_eccentricity": 9.7e-05,
        "meta_inclination": 2.7265,
        "meta_ra_of_asc_node": 72.0117,
        "meta_arg_of_pericenter": 121.8112,
        "meta_mean_anomaly": 329.5993,
        "meta_ephemeris_type": 0,
        "meta_classification_type": "U",
        "meta_norad_cat_id": 40732,
        "meta_element_set_no": 999,
        "meta_rev_at_epoch": 531,
        "meta_bstar": 0,
        "meta_mean_motion_dot": 6.3e-07,
        "meta_mean_motion_ddot": 0,
        "tle_line1": "1 40732U 15034A   25343.21074101  .00000063  00000+0  00000+0 0  9999",
        "tle_line2": "2 40732   2.7265  72.0117 0000970 121.8112 329.5993  1.00266394  5310"
      },
      "geometry": {
        "type": "Point",
        "coordinates": [
          175.1184790574391,
          2.6552874770491077
        ]
      }
    },
    {
      "type": "Feature",
      "properties": {
        "norad_id": 41105,
        "name": "ELEKTRO-L 2",
        "group": "weather",
        "lat": 6.099039632954007,
        "lon": 151.16850239603522,
        "alt_km": 35793.509859049715,
        "timestamp": "2025-12-10T05:46:13.440331+00:00",
        "meta_object_name": "ELEKTRO-L 2",
        "meta_object_id": "2015-074A",
        "meta_epoch": "2025-12-09T01:31:10.511904",
        "meta_mean_motion": 1.00271905,
        "meta_eccentricity": 0.00038363,
        "meta_inclination": 6.2161,
        "meta_ra_of_asc_node": 72.8685,
        "meta_arg_of_pericenter": 198.9202,
        "meta_mean_anomaly": 174.5582,
        "meta_ephemeris_type": 0,
        "meta_classification_type": "U",
        "meta_norad_cat_id": 41105,
        "meta_element_set_no": 999,
        "meta_rev_at_epoch": 3660,
        "meta_bstar": 0,
        "meta_mean_motion_dot": -1.16e-06,
        "meta_mean_motion_ddot": 0,
        "tle_line1": "1 41105U 15074A   25343.06331611 -.00000116  00000+0  00000+0 0  9993",
        "tle_line2": "2 41105   6.2161  72.8685 0003836 198.9202 174.5582  1.00271905 36608"
      },
      "geometry": {
        "type": "Point",
        "coordinates": [
          151.16850239603522,
          6.099039632954007
        ]
      }
    },
    {
      "type": "Feature",
      "properties": {
        "norad_id": 41752,
        "name": "INSAT-3DR",
        "group": "weather",
        "lat": 0.01790213897687766,
        "lon": -120.30888300391331,
        "alt_km": 35733.58768748814,
        "timestamp": "2025-12-10T05:46:13.440342+00:00",
        "meta_object_name": "INSAT-3DR",
        "meta_object_id": "2016-054A",
        "meta_epoch": "2025-12-09T17:50:38.679072",
        "meta_mean_motion": 1.00270393,
        "meta_eccentricity": 0.0014498,
        "meta_inclination": 0.0847,
        "meta_ra_of_asc_node": 86.6006,
        "meta_arg_of_pericenter": 183.6982,
        "meta_mean_anomaly": 150.0977,
        "meta_ephemeris_type": 0,
        "meta_classification_type": "U",
        "meta_norad_cat_id": 41752,
        "meta_element_set_no": 999,
        "meta_rev_at_epoch": 3391,
        "meta_bstar": 0,
        "meta_mean_motion_dot": -7.4e-07,
        "meta_mean_motion_ddot": 0,
        "tle_line1": "1 41752U 16054A   25343.74350323 -.00000074  00000+0  00000+0 0  9999",
        "tle_line2": "2 41752   0.0847  86.6006 0014498 183.6982 150.0977  1.00270393 33919"
      },
      "geometry": {
        "type": "Point",
        "coordinates": [
          -120.30888300391331,
          0.01790213897687766
        ]
      }
    },
    {
      "type": "Feature",
      "properties": {
        "norad_id": 41836,
        "name": "HIMAWARI-9",
        "group": "weather",
        "lat": -0.023853907260602113,
        "lon": -53.443378986518155,
        "alt_km": 35782.339611527044,
        "timestamp": "2025-12-10T05:46:13.440355+00:00",
        "meta_object_name": "HIMAWARI-9",
        "meta_object_id": "2016-064A",
        "meta_epoch": "2025-12-09T14:54:38.529792",
        "meta_mean_motion": 1.00272402,
        "meta_eccentricity": 0.0001201,
        "meta_inclination": 0.0241,
        "meta_ra_of_asc_node": 76.4244,
        "meta_arg_of_pericenter": 185.8518,
        "meta_mean_anomaly": 180.7669,
        "meta_ephemeris_type": 0,
        "meta_classification_type": "U",
        "meta_norad_cat_id": 41836,
        "meta_element_set_no": 999,
        "meta_rev_at_epoch": 3330,
        "meta_bstar": 0,
        "meta_mean_motion_dot": -2.72e-06,
        "meta_mean_motion_ddot": 0,
        "tle_line1": "1 41836U 16064A   25343.62127928 -.00000272  00000+0  00000+0 0  9993",
        "tle_line2": "2 41836   0.0241  76.4244 0001201 185.8518 180.7669  1.00272402 33302"
      },
      "geometry": {
        "type": "Point",
        "coordinates": [
          -53.443378986518155,
          -0.023853907260602113
        ]
      }
    }
  ]
}